TEVEL2-2                
1 63219U 25052K   26068.64848259  .00020339  00000+0  69428-3 0  9991
2 63219  97.3987 324.7700 0004693 105.7930 254.3828 15.30343745 54855
STARLINK-33957          
1 63897U 25095H   26067.37739726  .00051228  00000+0  18584-2 0  9994
2 63897  43.0035 183.9355 0001539 241.4171 118.6526 15.27577450 47577
